[{"OBJECT_NAME":"STARLINK-4362","OBJECT_ID":"2022-077A","EPOCH":"2026-03-09T23:25:33.150432","MEAN_MOTION":15.01261785,"ECCENTRICITY":0.00026308,"INCLINATION":97.6021,"RA_OF_ASC_NODE":250.5038,"ARG_OF_PERICENTER":62.7524,"MEAN_ANOMALY":297.3968,"EPHEMERIS_TYPE":0,"CLASSIFICATION_TYPE":"U","NORAD_CAT_ID":53043,"ELEMENT_SET_NO":999,"REV_AT_EPOCH":20096,"BSTAR":3.1779954e-5,"MEAN_MOTION_DOT":3.5e-6,"MEAN_MOTION_DDOT":0},{"OBJECT_NAME":"FENGYUN 1C DEB","OBJECT_ID":"1999-025AWA","EPOCH":"2026-03-09T00:03:06.465024","MEAN_MOTION":14.61941395,"ECCENTRICITY":0.02164637,"INCLINATION":98.0221,"RA_OF_ASC_NODE":81.8458,"ARG_OF_PERICENTER":98.975,"MEAN_ANOMALY":263.602,"EPHEMERIS_TYPE":0,"CLASSIFICATION_TYPE":"U","NORAD_CAT_ID":30840,"ELEMENT_SET_NO":999,"REV_AT_EPOCH":74391,"BSTAR":0.00079130371,"MEAN_MOTION_DOT":5.495e-5,"MEAN_MOTION_DDOT":0}]
